OBJECT_NAME,OBJECT_ID,EPOCH,MEAN_MOTION,ECCENTRICITY,INCLINATION,RA_OF_ASC_NODE,ARG_OF_PERICENTER,MEAN_ANOMALY,EPHEMERIS_TYPE,CLASSIFICATION_TYPE,NORAD_CAT_ID,ELEMENT_SET_NO,REV_AT_EPOCH,BSTAR,MEAN_MOTION_DOT,MEAN_MOTION_DDOT
LEMUR-1,2014-033AL,2026-06-13T22:12:36.307872,14.85235586,.00497454,97.7869,314.8031,89.0696,271.6218,0,U,40044,999,64498,.2383287E-3,.2035E-4,0
LEMUR-2-GREENBERG,2017-042N,2026-06-13T18:06:13.813920,15.31231630,.00088577,97.3810,345.3955,26.1376,334.0310,0,U,42837,999,48786,.553821E-3,.16667E-3,0
LEMUR-2-ANDIS,2017-042P,2026-06-13T11:10:14.413440,15.34707591,.00085632,97.3668,345.2793,25.4748,334.6916,0,U,42838,999,48788,.61456252E-3,.20649E-3,0
LEMUR-2-MONSON,2017-042Q,2026-06-13T18:08:09.375648,15.27928481,.00065457,97.4070,345.3743,18.6729,341.4750,0,U,42839,999,48764,.52673633E-3,.14304E-3,0
LEMUR-2-FURIAUS,2017-042R,2026-06-13T17:53:48.287328,15.30148660,.00083437,97.3762,343.3502,79.5870,280.6311,0,U,42840,999,48768,.60424512E-3,.17591E-3,0
LEMUR-2-PETERG,2017-042S,2026-06-13T18:33:48.201984,15.33766657,.00035088,97.3978,349.7987,10.7537,349.3779,0,U,42841,999,48791,.64976427E-3,.21176E-3,0
LEMUR-2-DEMBITZ,2017-042T,2026-06-13T18:22:34.973184,15.30198902,.00070625,97.3817,346.3911,40.3612,319.8152,0,U,42842,999,48782,.56719698E-3,.16527E-3,0
LEMUR-2-ZACHARY,2017-042W,2026-06-13T18:26:56.923296,15.49990885,.00031522,97.3595,356.3339,46.5533,313.5981,0,U,42845,999,48867,.83769763E-3,.47054E-3,0
LEMUR-2-AMANDA-SVANTE,2021-034B,2026-06-13T20:03:07.016832,15.34113521,.00019115,97.5769,243.0325,218.2028,141.9079,0,U,48269,999,28054,.9782041E-3,.32313E-3,0
LEMUR-2-SPECIAL-K,2021-034F,2026-06-13T04:22:41.112192,15.63381328,.00038184,97.5659,250.7526,230.6982,129.3938,0,U,48273,999,28106,.15333812E-2,.143233E-2,0
LEMUR-2-EMBRIONOVIS,2023-084AQ,2026-06-13T22:44:34.734336,15.37476650,.00079306,97.6280,309.0227,333.0696,27.0135,0,U,56970,999,16718,.38462498E-3,.14073E-3,0
LEMUR-2-DEVERILL-M-T,2023-100F,2026-06-13T20:31:49.085472,15.39599682,.00066537,99.4475,202.6512,61.0244,299.1662,0,U,57391,999,16073,.67708866E-3,.26632E-3,0
LEMUR-2-BASS,2023-174D,2026-06-13T18:33:28.891584,15.42990260,.00074474,97.3851,249.4376,173.3250,186.8098,0,U,58259,999,14483,.42103057E-3,.18499E-3,0
LEMUR-2-JK0903EM1407,2023-174CJ,2026-06-13T20:30:43.518240,15.51524335,.00058734,97.3926,255.2310,129.3068,230.8706,0,U,58336,999,14521,.49879096E-3,.2949E-3,0
LEMUR-2-MJR092620,2023-174CN,2026-06-13T22:04:50.806272,15.44768100,.00070613,97.3982,254.8887,127.2088,232.9806,0,U,58340,999,14514,.45070781E-3,.2104E-3,0
LEMUR-2-NIMBUS2000,2024-022A,2026-06-13T19:54:57.106368,15.39898226,.00102206,97.4111,14.7899,126.1458,234.0735,0,U,58899,999,13175,.43589802E-3,.17297E-3,0
LEMUR-2-VALHALLA,2024-022B,2026-06-13T13:34:07.599072,15.39571585,.0010756,97.4110,14.5148,123.3126,236.9151,0,U,58900,999,13171,.41521E-3,.16297E-3,0
LEMUR-2-OBA-NI-JESU,2024-022D,2026-06-13T06:27:58.466016,16.36778297,.0009182,97.3603,29.4721,248.5343,111.4976,0,U,58902,999,13270,.90464E-3,.7840474E-1,.25257E-5
LEMUR-2-CAEL,2024-022E,2026-06-13T20:06:43.643232,15.40875148,.00092647,97.4091,15.7207,107.4150,252.8110,0,U,58903,999,13182,.42616637E-3,.17457E-3,0
LEMUR-2-JOHNNYTRUONG,2024-043BA,2026-06-13T22:38:41.332416,15.60243743,.00047027,97.5365,316.4464,186.4415,173.6782,0,U,59146,999,12753,.47987091E-3,.3915E-3,0
LEMUR-2-TOMATOKECHUP,2024-149D,2026-06-13T21:57:50.426208,15.35969353,.00011293,97.3807,246.9531,182.4888,177.6350,0,U,60471,999,10166,.35093169E-3,.12214E-3,0
LEMUR-2-STELLA,2024-149BT,2026-06-13T18:32:08.980224,15.11743429,.00016243,97.6745,247.2120,94.9619,265.1797,0,U,60533,999,9998,.73714533E-3,.12513E-3,0
LEMUR-2-MARHISYAM,2024-149BW,2026-06-13T22:48:03.984768,15.11203813,.00034263,97.6891,247.8362,121.9517,238.2046,0,U,60536,999,9999,.68584863E-3,.11464E-3,0
LEMUR-2-AHMED-ASRAR,2024-149DN,2026-06-13T18:55:55.629120,15.12643178,.00020346,97.7009,249.7538,48.0575,312.0828,0,U,60576,999,10005,.76879525E-3,.13386E-3,0
LEMUR-2-LLOYD,2024-149DP,2026-06-13T22:13:35.831424,15.09180426,.00046968,97.6752,246.0534,148.2432,211.9080,0,U,60577,999,9990,.65295127E-3,.10319E-3,0
LEMUR-2-SQUIRRELCOMM,2024-149DQ,2026-06-13T22:27:32.785632,15.07119411,.00067726,97.6718,245.8572,71.4577,288.7386,0,U,60578,999,9991,.39724843E-3,.5908E-4,0
LEMUR-2-SIERRINI,2024-149DR,2026-06-13T18:34:52.319424,15.10882300,.00055421,97.6848,247.3506,176.0793,184.0481,0,U,60579,999,9994,.75681839E-3,.1255E-3,0
LEMUR-2-WILSON,2025-009CP,2026-06-13T17:58:16.223232,14.95150447,.00042941,97.7024,243.2734,65.0495,295.1171,0,U,62694,999,7684,.22009674E-3,.2359E-4,0
LEMUR-2-STAR-FOX,2025-009CR,2026-06-13T16:42:38.259360,15.02456923,.00035042,97.6959,246.3297,119.4913,240.6661,0,U,62696,999,7703,.63244545E-3,.8333E-4,0
